{"fetched_at":"2026-07-23T07:05:18.920Z","source":"https://celestrak.org/NORAD/elements/gp.php?GROUP=oneweb&FORMAT=JSON","constellation":"oneweb","records":[{"OBJECT_NAME":"ONEWEB-0520","OBJECT_ID":"2022-138AB","EPOCH":"2026-07-22T07:24:43.483968","CLASSIFICATION_TYPE":"U","MEAN_MOTION":13.19724547,"ECCENTRICITY":0.00021356,"INCLINATION":87.9193,"RA_OF_ASC_NODE":297.9759,"ARG_OF_PERICENTER":105.4149,"MEAN_ANOMALY":254.722,"EPHEMERIS_TYPE":0,"NORAD_CAT_ID":54138,"ELEMENT_SET_NO":999,"REV_AT_EPOCH":18145,"BSTAR":-0.000036064073,"MEAN_MOTION_DOT":-1e-8,"MEAN_MOTION_DDOT":0},{"OBJECT_NAME":"ONEWEB-0521","OBJECT_ID":"2022-138AC","EPOCH":"2026-07-22T17:18:20.993184","CLASSIFICATION_TYPE":"U","MEAN_MOTION":13.19724,"ECCENTRICITY":0.00018122,"INCLINATION":87.9193,"RA_OF_ASC_NODE":297.8826,"ARG_OF_PERICENTER":99.1283,"MEAN_ANOMALY":261.0055,"EPHEMERIS_TYPE":0,"NORAD_CAT_ID":54139,"ELEMENT_SET_NO":999,"REV_AT_EPOCH":18145,"BSTAR":-0.00017113248,"MEAN_MOTION_DOT":-5.6e-7,"MEAN_MOTION_DDOT":0},{"OBJECT_NAME":"ONEWEB-0522","OBJECT_ID":"2022-138AD","EPOCH":"2026-07-22T16:48:47.607264","CLASSIFICATION_TYPE":"U","MEAN_MOTION":13.1972404,"ECCENTRICITY":0.0002014,"INCLINATION":87.9193,"RA_OF_ASC_NODE":297.8893,"ARG_OF_PERICENTER":105.399,"MEAN_ANOMALY":254.7366,"EPHEMERIS_TYPE":0,"NORAD_CAT_ID":54140,"ELEMENT_SET_NO":999,"REV_AT_EPOCH":18149,"BSTAR":-0.000064565421,"MEAN_MOTION_DOT":-1.3e-7,"MEAN_MOTION_DDOT":0},{"OBJECT_NAME":"ONEWEB-0523","OBJECT_ID":"2022-138AE","EPOCH":"2026-07-22T04:19:52.219200","CLASSIFICATION_TYPE":"U","MEAN_MOTION":13.20769874,"ECCENTRICITY":0.00020387,"INCLINATION":87.9178,"RA_OF_ASC_NODE":267.4678,"ARG_OF_PERICENTER":74.895,"MEAN_ANOMALY":285.2409,"EPHEMERIS_TYPE":0,"NORAD_CAT_ID":54141,"ELEMENT_SET_NO":999,"REV_AT_EPOCH":18392,"BSTAR":-0.000059326806,"MEAN_MOTION_DOT":-1.1e-7,"MEAN_MOTION_DDOT":0},{"OBJECT_NAME":"ONEWEB-0524","OBJECT_ID":"2022-138AF","EPOCH":"2026-07-22T22:16:13.752480","CLASSIFICATION_TYPE":"U","MEAN_MOTION":13.20770672,"ECCENTRICITY":0.00027204,"INCLINATION":87.9179,"RA_OF_ASC_NODE":267.3157,"ARG_OF_PERICENTER":84.4237,"MEAN_ANOMALY":275.7206,"EPHEMERIS_TYPE":0,"NORAD_CAT_ID":54142,"ELEMENT_SET_NO":999,"REV_AT_EPOCH":18402,"BSTAR":-0.00015028713,"MEAN_MOTION_DOT":-4.8e-7,"MEAN_MOTION_DDOT":0},{"OBJECT_NAME":"ONEWEB-0525","OBJECT_ID":"2022-138AG","EPOCH":"2026-07-22T17:16:05.517120","CLASSIFICATION_TYPE":"U","MEAN_MOTION":13.19723999,"ECCENTRICITY":0.00023108,"INCLINATION":87.9191,"RA_OF_ASC_NODE":297.8924,"ARG_OF_PERICENTER":107.1048,"MEAN_ANOMALY":253.0338,"EPHEMERIS_TYPE":0,"NORAD_CAT_ID":54143,"ELEMENT_SET_NO":999,"REV_AT_EPOCH":18151,"BSTAR":-0.00017564139,"MEAN_MOTION_DOT":-5.7e-7,"MEAN_MOTION_DDOT":0},{"OBJECT_NAME":"ONEWEB-0526","OBJECT_ID":"2022-138AH","EPOCH":"2026-07-22T12:36:19.713024","CLASSIFICATION_TYPE":"U","MEAN_MOTION":13.19725391,"ECCENTRICITY":0.00021881,"INCLINATION":87.9189,"RA_OF_ASC_NODE":297.9314,"ARG_OF_PERICENTER":101.6921,"MEAN_ANOMALY":258.4458,"EPHEMERIS_TYPE":0,"NORAD_CAT_ID":54144,"ELEMENT_SET_NO":999,"REV_AT_EPOCH":18146,"BSTAR":0.00023259559,"MEAN_MOTION_DOT":0.00000106,"MEAN_MOTION_DDOT":0},{"OBJECT_NAME":"ONEWEB-0529","OBJECT_ID":"2022-138AJ","EPOCH":"2026-07-22T16:19:13.823040","CLASSIFICATION_TYPE":"U","MEAN_MOTION":13.19726324,"ECCENTRICITY":0.00021872,"INCLINATION":87.9183,"RA_OF_ASC_NODE":297.9072,"ARG_OF_PERICENTER":105.1209,"MEAN_ANOMALY":255.0166,"EPHEMERIS_TYPE":0,"NORAD_CAT_ID":54145,"ELEMENT_SET_NO":999,"REV_AT_EPOCH":18150,"BSTAR":0.000077964039,"MEAN_MOTION_DOT":4.4e-7,"MEAN_MOTION_DDOT":0},{"OBJECT_NAME":"ONEWEB-0531","OBJECT_ID":"2022-138AK","EPOCH":"2026-07-22T21:56:49.631712","CLASSIFICATION_TYPE":"U","MEAN_MOTION":13.2076962,"ECCENTRICITY":0.0002296,"INCLINATION":87.9175,"RA_OF_ASC_NODE":267.3155,"ARG_OF_PERICENTER":75.9165,"MEAN_ANOMALY":284.2223,"EPHEMERIS_TYPE":0,"NORAD_CAT_ID":54146,"ELEMENT_SET_NO":999,"REV_AT_EPOCH":18402,"BSTAR":-0.000008787094,"MEAN_MOTION_DOT":9e-8,"MEAN_MOTION_DDOT":0},{"OBJECT_NAME":"ONEWEB-0535","OBJECT_ID":"2022-138AL","EPOCH":"2026-07-22T17:06:58.844448","CLASSIFICATION_TYPE":"U","MEAN_MOTION":13.19723189,"ECCENTRICITY":0.00018658,"INCLINATION":87.9194,"RA_OF_ASC_NODE":297.8879,"ARG_OF_PERICENTER":91.8853,"MEAN_ANOMALY":268.2493,"EPHEMERIS_TYPE":0,"NORAD_CAT_ID":54147,"ELEMENT_SET_NO":999,"REV_AT_EPOCH":18152,"BSTAR":-0.00019451082,"MEAN_MOTION_DOT":-6.5e-7,"MEAN_MOTION_DDOT":0},{"OBJECT_NAME":"ONEWEB-0536","OBJECT_ID":"2022-138AM","EPOCH":"2026-07-22T21:37:26.045760","CLASSIFICATION_TYPE":"U","MEAN_MOTION":13.20769995,"ECCENTRICITY":0.00024722,"INCLINATION":87.9161,"RA_OF_ASC_NODE":267.3366,"ARG_OF_PERICENTER":74.3823,"MEAN_ANOMALY":285.7583,"EPHEMERIS_TYPE":0,"NORAD_CAT_ID":54148,"ELEMENT_SET_NO":999,"REV_AT_EPOCH":18401,"BSTAR":0.00018185949,"MEAN_MOTION_DOT":8.7e-7,"MEAN_MOTION_DDOT":0},{"OBJECT_NAME":"ONEWEB-0527","OBJECT_ID":"2022-166A","EPOCH":"2026-07-22T03:33:39.460032","CLASSIFICATION_TYPE":"U","MEAN_MOTION":13.21827524,"ECCENTRICITY":0.00020605,"INCLINATION":87.9224,"RA_OF_ASC_NODE":237.0378,"ARG_OF_PERICENTER":97.4587,"MEAN_ANOMALY":262.6781,"EPHEMERIS_TYPE":0,"NORAD_CAT_ID":54642,"ELEMENT_SET_NO":999,"REV_AT_EPOCH":17615,"BSTAR":-0.00033344876,"MEAN_MOTION_DOT":-0.00000125,"MEAN_MOTION_DDOT":0},{"OBJECT_NAME":"ONEWEB-0528","OBJECT_ID":"2022-166B","EPOCH":"2026-07-22T19:55:54.341184","CLASSIFICATION_TYPE":"U","MEAN_MOTION":13.21826451,"ECCENTRICITY":0.00022374,"INCLINATION":87.9225,"RA_OF_ASC_NODE":236.905,"ARG_OF_PERICENTER":99.3597,"MEAN_ANOMALY":260.779,"EPHEMERIS_TYPE":0,"NORAD_CAT_ID":54643,"ELEMENT_SET_NO":999,"REV_AT_EPOCH":17625,"BSTAR":0.000036121986,"MEAN_MOTION_DOT":2.8e-7,"MEAN_MOTION_DDOT":0},{"OBJECT_NAME":"ONEWEB-0539","OBJECT_ID":"2022-166C","EPOCH":"2026-07-22T13:34:23.946816","CLASSIFICATION_TYPE":"U","MEAN_MOTION":13.218244,"ECCENTRICITY":0.00018618,"INCLINATION":87.9234,"RA_OF_ASC_NODE":236.9316,"ARG_OF_PERICENTER":97.218,"MEAN_ANOMALY":262.9166,"EPHEMERIS_TYPE":0,"NORAD_CAT_ID":54644,"ELEMENT_SET_NO":999,"REV_AT_EPOCH":17621,"BSTAR":0.000020394378,"MEAN_MOTION_DOT":2.1e-7,"MEAN_MOTION_DDOT":0},{"OBJECT_NAME":"ONEWEB-0540","OBJECT_ID":"2022-166D","EPOCH":"2026-07-22T08:17:16.832544","CLASSIFICATION_TYPE":"U","MEAN_MOTION":13.21825045,"ECCENTRICITY":0.00019797,"INCLINATION":87.9229,"RA_OF_ASC_NODE":237.0037,"ARG_OF_PERICENTER":95.304,"MEAN_ANOMALY":264.832,"EPHEMERIS_TYPE":0,"NORAD_CAT_ID":54645,"ELEMENT_SET_NO":999,"REV_AT_EPOCH":17617,"BSTAR":0.000087146026,"MEAN_MOTION_DOT":4.9e-7,"MEAN_MOTION_DDOT":0},{"OBJECT_NAME":"ONEWEB-0542","OBJECT_ID":"2022-166E","EPOCH":"2026-07-22T08:21:55.921824","CLASSIFICATION_TYPE":"U","MEAN_MOTION":13.21825536,"ECCENTRICITY":0.00017791,"INCLINATION":87.9239,"RA_OF_ASC_NODE":236.9745,"ARG_OF_PERICENTER":97.4325,"MEAN_ANOMALY":262.7011,"EPHEMERIS_TYPE":0,"NORAD_CAT_ID":54646,"ELEMENT_SET_NO":999,"REV_AT_EPOCH":17618,"BSTAR":0.000023998503,"MEAN_MOTION_DOT":2.3e-7,"MEAN_MOTION_DDOT":0}]}
