{"epoch":1784799577,"count":18318,"objects":[{"id":"54138","name":"ONEWEB-0520","type":"PAYLOAD","l1":"1 54138U 22138AB  26203.30883662 -.00000001  00000-0 -36064-4 0  9992","l2":"2 54138  87.9193 297.9759 0002136 105.4149 254.7220 13.19724547181458"},{"id":"54139","name":"ONEWEB-0521","type":"PAYLOAD","l1":"1 54139U 22138AC  26203.72107631 -.00000056  00000-0 -17113-3 0  9997","l2":"2 54139  87.9193 297.8826 0001812  99.1283 261.0055 13.19724000181452"},{"id":"54140","name":"ONEWEB-0522","type":"PAYLOAD","l1":"1 54140U 22138AD  26203.70055101 -.00000013  00000-0 -64565-4 0  9998","l2":"2 54140  87.9193 297.8893 0002014 105.3990 254.7366 13.19724040181490"},{"id":"54141","name":"ONEWEB-0523","type":"PAYLOAD","l1":"1 54141U 22138AE  26203.18046550 -.00000011  00000-0 -59327-4 0  9997","l2":"2 54141  87.9178 267.4678 0002039  74.8950 285.2409 13.20769874183924"},{"id":"54142","name":"ONEWEB-0524","type":"PAYLOAD","l1":"1 54142U 22138AF  26203.92793695 -.00000048  00000-0 -15029-3 0  9999","l2":"2 54142  87.9179 267.3157 0002720  84.4237 275.7206 13.20770672184028"},{"id":"54143","name":"ONEWEB-0525","type":"PAYLOAD","l1":"1 54143U 22138AG  26203.71950830 -.00000057  00000-0 -17564-3 0  9999","l2":"2 54143  87.9191 297.8924 0002311 107.1048 253.0338 13.19723999181516"},{"id":"54144","name":"ONEWEB-0526","type":"PAYLOAD","l1":"1 54144U 22138AH  26203.52522816  .00000106  00000-0  23260-3 0  9991","l2":"2 54144  87.9189 297.9314 0002188 101.6921 258.4458 13.19725391181463"},{"id":"54145","name":"ONEWEB-0529","type":"PAYLOAD","l1":"1 54145U 22138AJ  26203.68002110  .00000044  00000-0  77964-4 0  9991","l2":"2 54145  87.9183 297.9072 0002187 105.1209 255.0166 13.19726324181507"},{"id":"54146","name":"ONEWEB-0531","type":"PAYLOAD","l1":"1 54146U 22138AK  26203.91446333  .00000009  00000-0 -87871-5 0  9998","l2":"2 54146  87.9175 267.3155 0002296  75.9165 284.2223 13.20769620184024"},{"id":"54147","name":"ONEWEB-0535","type":"PAYLOAD","l1":"1 54147U 22138AL  26203.71318107 -.00000065  00000-0 -19451-3 0  9994","l2":"2 54147  87.9194 297.8879 0001866  91.8853 268.2493 13.19723189181521"},{"id":"54148","name":"ONEWEB-0536","type":"PAYLOAD","l1":"1 54148U 22138AM  26203.90099590  .00000087  00000-0  18186-3 0  9994","l2":"2 54148  87.9161 267.3366 0002472  74.3823 285.7583 13.20769995184014"},{"id":"54642","name":"ONEWEB-0527","type":"PAYLOAD","l1":"1 54642U 22166A   26203.14837338 -.00000125  00000-0 -33345-3 0  9999","l2":"2 54642  87.9224 237.0378 0002060  97.4587 262.6781 13.21827524176150"},{"id":"54643","name":"ONEWEB-0528","type":"PAYLOAD","l1":"1 54643U 22166B   26203.83049006  .00000028  00000-0  36122-4 0  9990","l2":"2 54643  87.9225 236.9050 0002237  99.3597 260.7790 13.21826451176253"},{"id":"54644","name":"ONEWEB-0539","type":"PAYLOAD","l1":"1 54644U 22166C   26203.56555494  .00000021  00000-0  20394-4 0  9991","l2":"2 54644  87.9234 236.9316 0001862  97.2180 262.9166 13.21824400176216"},{"id":"54645","name":"ONEWEB-0540","type":"PAYLOAD","l1":"1 54645U 22166D   26203.34533371  .00000049  00000-0  87146-4 0  9996","l2":"2 54645  87.9229 237.0037 0001980  95.3040 264.8320 13.21825045176172"},{"id":"54646","name":"ONEWEB-0542","type":"PAYLOAD","l1":"1 54646U 22166E   26203.34856391  .00000023  00000-0  23999-4 0  9995","l2":"2 54646  87.9239 236.9745 0001779  97.4325 262.7011 13.21825536176183"}]}